ONEWEB-0560             
1 55145U 23004F   24186.89888819  .00000145  00000+0  33412-3 0  9994
2 55145  87.9155 117.2850 0002178  67.5552 292.5810 13.18685202 75835
ONEWEB-0565             
1 55146U 23004G   24186.81669386  .00000027  00000+0  35538-4 0  9994
2 55146  87.9150 117.3786 0001483  64.3510 295.7776 13.18687354 75811
ONEWEB-0567             
1 55147U 23004H   24186.88622990  .00000069  00000+0  14109-3 0  9998
2 55147  87.9151 117.3184 0001810  64.2033 295.9286 13.18689199 75826
ONEWEB-0569             
1 55148U 23004J   24186.82282976 -.00000070  00000+0 -22638-3 0  9999
2 55148  87.8932 101.9920 0002011  44.6743 315.4548 13.13470033 76666
ONEWEB-0570             
1 55149U 23004K   24186.87359594  .00000055  00000+0  10716-3 0  9991
2 55149  87.9153 117.3181 0001374  94.6789 265.4500 13.18688062 75815
ONEWEB-0571             
1 55150U 23004L   24186.86726921 -.00000025  00000+0 -95657-4 0  9991
2 55150  87.9154 117.3252 0001318  48.6946 311.4299 13.18684958 75827
ONEWEB-0572             
1 55151U 23004M   24186.93429648  .00000017  00000+0  11891-4 0  9993
2 55151  87.9179 147.6717 0001867  84.3110 275.8234 13.17648468 73685
ONEWEB-0573             
1 55152U 23004N   24186.86095076 -.00000038  00000+0 -12948-3 0  9998
2 55152  87.9149 117.3466 0001086  61.8804 298.2437 13.18685936 75814
